NORAD_CAT_ID,OBJECT_NAME,OBJECT_TYPE,EPOCH,MEAN_MOTION,ECCENTRICITY,INCLINATION,RA_OF_ASC_NODE,ARG_OF_PERICENTER,MEAN_ANOMALY,BSTAR,MEAN_MOTION_DOT,MEAN_MOTION_DDOT,TLE_LINE0,TLE_LINE1,TLE_LINE2,SEMIMAJOR_AXIS,PERIOD,APOGEE,PERIGEE,DECAYED
49725.0,STARLINK-3218,PAYLOAD,2022-06-25 12:18:30,15.08835483,0.0003313,53.2197,103.771,58.5025,301.6291,5.7342e-05,6.24e-06,0.0,0 STARLINK-3218,1 49725U 21115B   22176.51285063  .00000624  00000-0  57342-4 0  9992,2 49725  53.2197 103.7710 0003313  58.5025 301.6291 15.08835483 31258,6917.894,95.438,542.0509999999998,537.467,0.0
49725.0,STARLINK-3218,PAYLOAD,2022-06-25 13:53:53,15.08836752,0.0003231,53.2192,103.4739,58.7219,301.4089,7.1143e-05,8.44e-06,0.0,0 STARLINK-3218,1 49725U 21115B   22176.57908931  .00000844  00000-0  71143-4 0  9993,2 49725  53.2192 103.4739 0003231  58.7219 301.4089 15.08836752 32374,6917.89,95.438,541.99,537.52,0.0
49725.0,STARLINK-3218,PAYLOAD,2022-06-26 01:01:34,15.08850039,0.0003255,53.219,101.3921,60.4438,299.6878,5.2345e-05,5.45e-06,0.0,0 STARLINK-3218,1 49725U 21115B   22177.04276241  .00000545  00000-0  52345-4 0  9999,2 49725  53.2190 101.3921 0003255  60.4438 299.6878 15.08850039 32447,6917.85,95.437,541.966,537.4630000000002,0.0
49725.0,STARLINK-3218,PAYLOAD,2022-06-26 12:09:16,15.08846627,0.0003322,53.2189,99.3103,60.713,299.4194,0.00017165,2.445e-05,0.0,0 STARLINK-3218,1 49725U 21115B   22177.50643921  .00002445  00000-0  17165-3 0  9994,2 49725  53.2189  99.3103 0003322  60.7130 299.4194 15.08846627 31402,6917.86,95.437,542.023,537.427,0.0
49725.0,STARLINK-3218,PAYLOAD,2022-06-26 13:44:39,15.08846738,0.0003332,53.2189,99.013,61.0665,299.0661,0.00017397,2.482e-05,0.0,0 STARLINK-3218,1 49725U 21115B   22177.57267927  .00002482  00000-0  17397-3 0  9997,2 49725  53.2189  99.0130 0003332  61.0665 299.0661 15.08846738 31416,6917.86,95.437,542.03,537.42,0.0
49725.0,STARLINK-3218,PAYLOAD,2022-06-27 00:52:22,15.08829785,0.000314,53.2191,96.9318,61.879,298.2519,4.0291e-05,3.52e-06,0.0,0 STARLINK-3218,1 49725U 21115B   22178.03637634  .00000352  00000-0  40291-4 0  9999,2 49725  53.2191  96.9318 0003140  61.8790 298.2519 15.08829785 32593,6917.9119999999975,95.438,541.9490000000002,537.604,0.0
49725.0,STARLINK-3218,PAYLOAD,2022-06-27 13:35:27,15.08841615,0.0003176,53.2191,94.5531,62.7329,297.3986,6.742e-05,7.85e-06,0.0,0 STARLINK-3218,1 49725U 21115B   22178.56628894  .00000785  00000-0  67420-4 0  9998,2 49725  53.2191  94.5531 0003176  62.7329 297.3986 15.08841615 32674,6917.875,95.437,541.938,537.543,0.0
49725.0,STARLINK-3218,PAYLOAD,2022-06-27 19:56:59,15.08846023,0.0003194,53.219,93.3637,63.1788,296.9531,5.7805e-05,6.32e-06,0.0,0 STARLINK-3218,1 49725U 21115B   22178.83124587  .00000632  00000-0  57805-4 0  9995,2 49725  53.2190  93.3637 0003194  63.1788 296.9531 15.08846023 31602,6917.861999999999,95.437,541.937,537.5169999999998,0.0
49725.0,STARLINK-3218,PAYLOAD,2022-06-28 11:50:51,15.08833702,0.0003022,53.2189,90.3901,64.8005,295.33,-9.0005e-05,-1.721e-05,0.0,0 STARLINK-3218,1 49725U 21115B   22179.49365268 -.00001721  00000-0 -90005-4 0  9992,2 49725  53.2189  90.3901 0003022  64.8005 295.3300 15.08833702 32812,6917.9,95.438,541.855,537.674,0.0
49725.0,STARLINK-3218,PAYLOAD,2022-06-28 21:23:10,15.0883228,0.0002943,53.2191,88.6062,62.7972,297.3319,0.00011989,1.62e-05,0.0,0 STARLINK-3218,1 49725U 21115B   22179.89109513  .00001620  00000-0  11989-3 0  9994,2 49725  53.2191  88.6062 0002943  62.7972 297.3319 15.08832280 31769,6917.904,95.438,541.805,537.7330000000002,0.0
49725.0,STARLINK-3218,PAYLOAD,2022-06-29 00:33:56,15.08833087,0.0002989,53.219,88.0118,61.8113,298.3181,0.00011531,1.547e-05,0.0,0 STARLINK-3218,1 49725U 21115B   22180.02357556  .00001547  00000-0  11531-3 0  9994,2 49725  53.2190  88.0118 0002989  61.8113 298.3181 15.08833087 31787,6917.901999999999,95.438,541.8340000000002,537.6990000000002,0.0
49725.0,STARLINK-3218,PAYLOAD,2022-06-29 21:13:58,15.08827122,0.0003005,53.2194,84.1457,64.5763,295.5540000000001,-3.4741e-05,-8.41e-06,0.0,0 STARLINK-3218,1 49725U 21115B   22180.88470938 -.00000841  00000-0 -34741-4 0  9995,2 49725  53.2194  84.1457 0003005  64.5763 295.5540 15.08827122 31911,6917.92,95.438,541.864,537.706,0.0
49725.0,STARLINK-3218,PAYLOAD,2022-06-30 03:35:31,15.08827018,0.0003002,53.2198,82.9566,64.6561,295.4742,-5.4569e-06,-3.75e-06,0.0,0 STARLINK-3218,1 49725U 21115B   22181.14967014 -.00000375  00000-0 -54569-5 0  9994,2 49725  53.2198  82.9566 0003002  64.6561 295.4742 15.08827018 31957,6917.92,95.438,541.862,537.7080000000002,0.0
49725.0,STARLINK-3218,PAYLOAD,2022-06-30 21:04:46,15.08828812,0.0003039,53.2195,79.6857,65.9406,294.1904,7.758899999999999e-05,9.46e-06,0.0,0 STARLINK-3218,1 49725U 21115B   22181.87831481  .00000946  00000-0  77589-4 0  9990,2 49725  53.2195  79.6857 0003039  65.9406 294.1904 15.08828812 32064,6917.915,95.438,541.882,537.677,0.0
49725.0,STARLINK-3218,PAYLOAD,2022-07-01 03:26:18,15.08833014,0.0003199,53.2187,78.4968,69.5769,290.5566,0.00010743,1.421e-05,0.0,0 STARLINK-3218,1 49725U 21115B   22182.14327438  .00001421  00000-0  10743-3 0  9990,2 49725  53.2187  78.4968 0003199  69.5769 290.5566 15.08833014 33216,6917.901999999999,95.438,541.98,537.554,0.0
49725.0,STARLINK-3218,PAYLOAD,2022-07-01 09:47:51,15.08833027,0.0003093,53.2189,77.3074,66.2474,293.8842,0.00022656,3.318e-05,0.0,0 STARLINK-3218,1 49725U 21115B   22182.40823618  .00003318  00000-0  22656-3 0  9993,2 49725  53.2189  77.3074 0003093  66.2474 293.8842 15.08833027 32142,6917.901999999999,95.438,541.906,537.627,0.0
49725.0,STARLINK-3218,PAYLOAD,2022-07-01 20:55:33,15.08838901,0.00031,53.2189,75.2261,67.6841,292.448,0.00022196,3.246e-05,0.0,0 STARLINK-3218,1 49725U 21115B   22182.87191527  .00003246  00000-0  22196-3 0  9990,2 49725  53.2189  75.2261 0003100  67.6841 292.4480 15.08838901 32216,6917.884,95.438,541.893,537.604,0.0
49725.0,STARLINK-3218,PAYLOAD,2022-07-02 09:38:38,15.08849873,0.0003106,53.2188,72.8474,68.6837,291.4486,0.0003088,4.631e-05,0.0,0 STARLINK-3218,1 49725U 21115B   22183.40183113  .00004631  00000-0  30880-3 0  9990,2 49725  53.2188  72.8474 0003106  68.6837 291.4486 15.08849873 32299,6917.85,95.437,541.864,537.567,0.0
49725.0,STARLINK-3218,PAYLOAD,2022-07-02 16:00:10,15.08855977,0.000309,53.2187,71.6578,69.5892,290.5431,0.00037161,5.633e-05,0.0,0 STARLINK-3218,1 49725U 21115B   22183.66678759  .00005633  00000-0  37161-3 0  9995,2 49725  53.2187  71.6578 0003090  69.5892 290.5431 15.08855977 32330,6917.831999999999,95.437,541.8340000000002,537.559,0.0
49725.0,STARLINK-3218,PAYLOAD,2022-07-03 09:29:23,15.08869124,0.0003113,53.2179,68.3869,70.2978,289.835,0.00044819,6.858e-05,0.0,0 STARLINK-3218,1 49725U 21115B   22184.39541530  .00006858  00000-0  44819-3 0  9990,2 49725  53.2179  68.3869 0003113  70.2978 289.8350 15.08869124 33552,6917.791,95.436,541.81,537.503,0.0
49725.0,STARLINK-3218,PAYLOAD,2022-07-03 22:12:28,15.08860697,0.0003131,53.2177,66.0074,72.7345,287.399,0.00015149,2.125e-05,0.0,0 STARLINK-3218,1 49725U 21115B   22184.92533105  .00002125  00000-0  15149-3 0  9995,2 49725  53.2177  66.0074 0003131  72.7345 287.3990 15.08860697 32523,6917.816999999999,95.436,541.8480000000002,537.516,0.0
49725.0,STARLINK-3218,PAYLOAD,2022-07-04 01:23:15,15.08850843,0.0003025,53.2186,65.4142,71.7279,288.4042,-3.9577e-05,-9.19e-06,0.0,0 STARLINK-3218,1 49725U 21115B   22185.05781334 -.00000919  00000-0 -39577-4 0  9992,2 49725  53.2186  65.4142 0003025  71.7279 288.4042 15.08850843 33656,6917.847,95.437,541.805,537.62,0.0
49725.0,STARLINK-3218,PAYLOAD,2022-07-04 09:20:11,15.08833987,0.0003132,53.2188,63.9262,72.016,288.1173,-0.00020037,-3.476e-05,0.0,0 STARLINK-3218,1 49725U 21115B   22185.38902449 -.00003476  00000-0 -20037-3 0  9991,2 49725  53.2188  63.9262 0003132  72.0160 288.1173 15.08833987 33704,6917.899,95.438,541.93,537.597,0.0
49725.0,STARLINK-3218,PAYLOAD,2022-07-04 22:03:16,15.08834409,0.0003075,53.2187,61.5469,73.4168,286.7162,-0.00019862,-3.448e-05,0.0,0 STARLINK-3218,1 49725U 21115B   22185.91894573 -.00003448  00000-0 -19862-3 0  9991,2 49725  53.2187  61.5469 0003075  73.4168 286.7162 15.08834409 32672,6917.897,95.438,541.89,537.635,0.0
49725.0,STARLINK-3218,PAYLOAD,2022-07-05 09:10:58,15.08836748,0.0003071,53.2189,59.4657,74.1325,286.0006,-7.2789e-05,-1.447e-05,0.0,0 STARLINK-3218,1 49725U 21115B   22186.38262724 -.00001447  00000-0 -72789-4 0  9995,2 49725  53.2189  59.4657 0003071  74.1325 286.0006 15.08836748 32744,6917.89,95.438,541.88,537.631,0.0
49725.0,STARLINK-3218,PAYLOAD,2022-07-05 20:18:41,15.08838459,0.0003003999999999,53.2189,57.3841,75.1785,284.954,0.00011792,1.589e-05,0.0,0 STARLINK-3218,1 49725U 21115B   22186.84630919  .00001589  00000-0  11792-3 0  9992,2 49725  53.2189  57.3841 0003004  75.1785 284.9540 15.08838459 32812,6917.885,95.438,541.828,537.672,0.0
49725.0,STARLINK-3218,PAYLOAD,2022-07-06 02:40:13,15.08837918,0.0002917,53.2189,56.1949,75.1305,285.001,0.00028879,4.311e-05,0.0,0 STARLINK-3218,1 49725U 21115B   22187.11127205  .00004311  00000-0  28879-3 0  9992,2 49725  53.2189  56.1949 0002917  75.1305 285.0010 15.08837918 32855,6917.887,95.438,541.77,537.734,0.0
49725.0,STARLINK-3218,PAYLOAD,2022-07-06 21:44:51,15.08837093,0.0002881,53.2185,52.6269,74.9926,285.1385,0.00023024,3.378e-05,0.0,0 STARLINK-3218,1 49725U 21115B   22187.90615634  .00003378  00000-0  23024-3 0  9996,2 49725  53.2185  52.6269 0002881  74.9926 285.1385 15.08837093 32976,6917.889,95.438,541.747,537.761,0.0
49725.0,STARLINK-3218,PAYLOAD,2022-07-07 00:55:38,15.08835715,0.0002858,53.2189,52.032,75.1771,284.9538,0.00016025,2.263e-05,0.0,0 STARLINK-3218,1 49725U 21115B   22188.03863720  .00002263  00000-0  16025-3 0  9997,2 49725  53.2189  52.0320 0002858  75.1771 284.9538 15.08835715 32995,6917.893,95.438,541.736,537.781,0.0
